EYESAT A (AO-27)        
1 22825U 93061C   26167.72018012  .00000085  00000+0  49163-4 0  9990
2 22825  98.6881 235.1339 0009538 100.9121 259.3135 14.30942178706938
ITAMSAT (IO-26)         
1 22826U 93061D   26167.76963491  .00000079  00000+0  46477-4 0  9993
2 22826  98.6829 235.1008 0010072  86.0434 274.1901 14.31369092707251
RADIO ROSTO (RS15)      
1 23439U 94085A   26167.84991375 -.00000050  00000+0 -20163-3 0  9996
2 23439  64.8179 303.7617 0155939   3.9390 356.2723 11.27583472295869
JAS-2 (FO-29)           
1 24278U 96046B   26167.86751167  .00000005  00000+0  37591-4 0  9994
2 24278  98.5239  16.7835 0350901  97.2592 266.8568 13.53274370473126
FORTE                   
1 24920U 97047A   26167.81463112  .00000106  00000+0  65776-4 0  9993
2 24920  69.9540  14.8630 0024633 277.8624  81.9702 14.27944944498633
TECHSAT 1B (GO-32)      
1 25397U 98043D   26167.85366090  .00000033  00000+0  34602-4 0  9993
2 25397  99.0067 160.6038 0001052 163.3790 196.7423 14.24428316451287
ISS (ZARYA)             
1 25544U 98067A   26167.86697329  .00007968  00000+0  15124-3 0  9997
2 25544  51.6339 301.6783 0004749 194.3570 165.7284 15.49265361571705
IMAGE                   
1 26113U 00017A   26162.34581823  .00000011  00000+0  22926-1 0  9995
2 26113  94.2241 315.2958 7436383 288.4674   8.8959  1.68665984161407
CLUSTER II-FM7 (SAMBA)  
1 26410U 00041A   26168.13893488  .00013373  00000+0  00000+0 0  9990
2 26410 149.9159  50.9864 9054007 268.1291 359.6411  0.44868040 20307
CLUSTER II-FM8 (TANGO)  
1 26464U 00045B   26166.18671727  .00011728  00000+0  00000+0 0  9998
2 26464 150.1502  51.7537 9056828 268.7236   2.8065  0.44400569 20306
ODIN                    
1 26702U 01007A   26167.64990388  .00151730  00000+0  98033-3 0  9996
2 26702  97.3825 208.5575 0006693 143.1116 217.0611 15.75626602389318
OMNI-M1                 
1 26857U 01026A   26167.20907279 -.00000001  00000+0  00000+0 0  9995
2 26857  44.8307 245.4893 0014194  53.4474 306.7446  3.92401638205538
PCSAT (NO-44)           
1 26931U 01043C   26167.60055176  .00000075  00000+0  58858-4 0  9990
2 26931  67.0506 245.7892 0006082 264.6522  95.3886 14.31955906290369
PROBA-1                 
1 26958U 01049B   26167.87116302  .00001152  00000+0  77829-4 0  9999
2 26958  97.9595 176.3922 0056446 122.8667 237.8011 15.07492899343571
SAUDISAT 1C (SO-50)     
1 27607U 02058C   26167.61583826  .00000824  00000+0  11462-3 0  9998
2 27607  64.5510 130.7531 0075275 262.5800  96.6748 14.83045885264372
CORIOLIS                
1 27640U 03001A   26167.77439084  .00000073  00000+0  54658-4 0  9998
2 27640  98.7125 174.6654 0013351 210.0344 150.0068 14.19944641214160
CUTE-1 (CO-55)          
1 27844U 03031E   26167.82643209  .00000230  00000+0  11849-3 0  9998
2 27844  98.6736 176.3898 0009511 179.0123 181.1076 14.24335514191622
CUBESAT XI-IV (CO-57)   
1 27848U 03031J   26167.74442547  .00000195  00000+0  10473-3 0  9997
2 27848  98.6766 176.0218 0008995 198.3693 161.7162 14.23620607191318
MOZHAETS 4 (RS22)       
1 27939U 03042A   26167.88129492  .00000699  00000+0  11599-3 0  9995
2 27939  98.3461 352.2313 0009933 270.9686 196.4351 14.73466646215503
